[{"OBJECT_NAME":"STARLINK-35414","OBJECT_ID":"2025-218H","EPOCH":"2026-03-09T14:04:43.015872","MEAN_MOTION":15.05651824,"ECCENTRICITY":0.000162,"INCLINATION":97.6015,"RA_OF_ASC_NODE":292.8433,"ARG_OF_PERICENTER":88.9368,"MEAN_ANOMALY":271.2045,"EPHEMERIS_TYPE":0,"CLASSIFICATION_TYPE":"U","NORAD_CAT_ID":65798,"ELEMENT_SET_NO":999,"REV_AT_EPOCH":2495,"BSTAR":0.00026272,"MEAN_MOTION_DOT":3.732e-5,"MEAN_MOTION_DDOT":0},{"OBJECT_NAME":"SL-18 R\/B","OBJECT_ID":"2001-007B","EPOCH":"2026-03-09T23:25:11.323200","MEAN_MOTION":15.07301441,"ECCENTRICITY":0.00085554,"INCLINATION":97.6926,"RA_OF_ASC_NODE":87.6817,"ARG_OF_PERICENTER":353.225,"MEAN_ANOMALY":6.886,"EPHEMERIS_TYPE":0,"CLASSIFICATION_TYPE":"U","NORAD_CAT_ID":26703,"ELEMENT_SET_NO":999,"REV_AT_EPOCH":64619,"BSTAR":0.00021543689,"MEAN_MOTION_DOT":3.19e-5,"MEAN_MOTION_DDOT":0}]
